NORAD_CAT_ID,OBJECT_NAME,OBJECT_TYPE,EPOCH,MEAN_MOTION,ECCENTRICITY,INCLINATION,RA_OF_ASC_NODE,ARG_OF_PERICENTER,MEAN_ANOMALY,BSTAR,MEAN_MOTION_DOT,MEAN_MOTION_DDOT,TLE_LINE0,TLE_LINE1,TLE_LINE2,SEMIMAJOR_AXIS,PERIOD,APOGEE,PERIGEE,DECAYED
51118.0,STARLINK-3394,PAYLOAD,2024-01-12 21:14:03,15.08830131,0.0001574,53.2154,221.223,118.2576,241.8575,0.00010627,1.403e-05,0.0,0 STARLINK-3394,1 51118U 22005Q   24012.88476377  .00001403  00000-0  10627-3 0  9991,2 51118  53.2154 221.2230 0001574 118.2576 241.8575 15.08830131110090,6917.911,95.438,540.864,538.687,0.0
51118.0,STARLINK-3394,PAYLOAD,2024-01-13 00:24:49,15.08839265,0.0002054,53.2157,220.6296,133.1157,227.0007,-8.835e-05,-1.694e-05,0.0,0 STARLINK-3394,1 51118U 22005Q   24013.01724235 -.00001694  00000-0 -88350-4 0  9999,2 51118  53.2157 220.6296 0002054 133.1157 227.0007 15.08839265110119,6917.883,95.438,541.169,538.327,0.0
51118.0,STARLINK-3394,PAYLOAD,2024-01-13 19:29:27,15.08841278,0.0001296,53.2154,217.0624,80.9692,279.1447,5.5117e-05,5.89e-06,0.0,0 STARLINK-3394,1 51118U 22005Q   24013.81212167  .00000589  00000-0  55117-4 0  9998,2 51118  53.2154 217.0624 0001296  80.9692 279.1447 15.08841278110237,6917.876,95.437,540.638,538.845,0.0
51118.0,STARLINK-3394,PAYLOAD,2024-01-14 19:20:13,15.08845248,0.0001343,53.2156,212.6013,76.7005,283.4136,0.00020053,2.905e-05,0.0,0 STARLINK-3394,1 51118U 22005Q   24014.80571707  .00002905  00000-0  20053-3 0  9990,2 51118  53.2156 212.6013 0001343  76.7005 283.4136 15.08845248111499,6917.864,95.437,540.658,538.8,0.0
51118.0,STARLINK-3394,PAYLOAD,2024-01-14 22:31:00,15.08848708,0.0001338,53.2156,212.0064,78.3476,281.7667,0.00022881,3.356e-05,0.0,0 STARLINK-3394,1 51118U 22005Q   24014.93819466  .00003356  00000-0  22881-3 0  9993,2 51118  53.2156 212.0064 0001338  78.3476 281.7667 15.08848708110407,6917.854,95.437,540.644,538.793,0.0
51118.0,STARLINK-3394,PAYLOAD,2024-01-15 12:49:28,15.08842972,0.0001418,53.2143,209.3269,119.2049,240.9085,8.9243e-05,1.133e-05,0.0,0 STARLINK-3394,1 51118U 22005Q   24015.53435761  .00001133  00000-0  89243-4 0  9999,2 51118  53.2143 209.3269 0001418 119.2049 240.9085 15.08842972110496,6917.871,95.437,540.717,538.755,0.0
51118.0,STARLINK-3394,PAYLOAD,2024-01-15 19:11:00,15.08846564,0.0001336,53.2153,208.1389,102.5589,257.5553,8.0766e-05,9.98e-06,0.0,0 STARLINK-3394,1 51118U 22005Q   24015.79931561  .00000998  00000-0  80766-4 0  9995,2 51118  53.2153 208.1389 0001336 102.5589 257.5553 15.08846564110530,6917.86,95.437,540.65,538.801,0.0
51118.0,STARLINK-3394,PAYLOAD,2024-01-16 12:40:15,15.08844715,0.0001341,53.2149,204.8685,97.9156,262.1988,1.2513e-05,-8.9e-07,0.0,0 STARLINK-3394,1 51118U 22005Q   24016.52795697 -.00000089  00000-0  12513-4 0  9992,2 51118  53.2149 204.8685 0001341  97.9156 262.1988 15.08844715110642,6917.866,95.437,540.659,538.803,0.0
51118.0,STARLINK-3394,PAYLOAD,2024-01-16 22:12:34,15.08844761,0.0001313,53.2152,203.084,100.06,260.0541,3.8033e-08,-2.87e-06,0.0,0 STARLINK-3394,1 51118U 22005Q   24016.92539479 -.00000287  00000-0  38033-7 0  9998,2 51118  53.2152 203.0840 0001313 100.0600 260.0541 15.08844761110709,6917.866,95.437,540.639,538.823,0.0
51118.0,STARLINK-3394,PAYLOAD,2024-01-17 09:20:16,15.08833618,0.0001312,53.2153,201.0039,88.8987,271.2155,-1.4786e-05,-5.23e-06,0.0,0 STARLINK-3394,1 51118U 22005Q   24017.38908298 -.00000523  00000-0 -14786-4 0  9998,2 51118  53.2153 201.0039 0001312  88.8987 271.2155 15.08833618111882,6917.9,95.438,540.673,538.857,0.0
51118.0,STARLINK-3394,PAYLOAD,2024-01-17 18:52:35,15.08837825,0.0001267,53.2155,199.219,96.2004,263.9132,2.0298e-06,-2.56e-06,0.0,0 STARLINK-3394,1 51118U 22005Q   24017.78652029 -.00000256  00000-0  20298-5 0  9998,2 51118  53.2155 199.2190 0001267  96.2004 263.9132 15.08837825110833,6917.887,95.438,540.629,538.876,0.0
51118.0,STARLINK-3394,PAYLOAD,2024-01-18 12:21:49,15.08838535,0.0001288,53.2161,195.9482,101.7027,258.411,2.3234e-05,8.2e-07,0.0,0 STARLINK-3394,1 51118U 22005Q   24018.51516031  .00000082  00000-0  23234-4 0  9990,2 51118  53.2161 195.9482 0001288 101.7027 258.4110 15.08838535112057,6917.885,95.438,540.641,538.859,0.0
51118.0,STARLINK-3394,PAYLOAD,2024-01-18 17:07:59,15.08841012,0.0001285,53.2161,195.0561,100.4128,259.7009,4.2337e-05,3.86e-06,0.0,0 STARLINK-3394,1 51118U 22005Q   24018.71387830  .00000386  00000-0  42337-4 0  9997,2 51118  53.2161 195.0561 0001285 100.4128 259.7009 15.08841012110975,6917.877,95.437,540.631,538.853,0.0
51118.0,STARLINK-3394,PAYLOAD,2024-01-19 18:34:09,15.08836574,0.000121,53.2158,190.2983,92.6179,267.4952,6.6239e-05,7.66e-06,0.0,0 STARLINK-3394,1 51118U 22005Q   24019.77372305  .00000766  00000-0  66239-4 0  9994,2 51118  53.2158 190.2983 0001210  92.6179 267.4952 15.08836574112244,6917.891,95.438,540.593,538.919,0.0
51118.0,STARLINK-3394,PAYLOAD,2024-01-20 15:14:11,15.08829411,0.0001445,53.2164,186.432,85.8487,274.267,-4.7557e-05,-1.045e-05,0.0,0 STARLINK-3394,1 51118U 22005Q   24020.63485724 -.00001045  00000-0 -47557-4 0  9996,2 51118  53.2164 186.4320 0001445  85.8487 274.2670 15.08829411111265,6917.913,95.438,540.777,538.778,0.0
51118.0,STARLINK-3394,PAYLOAD,2024-01-20 18:24:58,15.08828176,0.0001378,53.2164,185.838,83.4741,276.6408,-4.4793e-05,-1e-05,0.0,0 STARLINK-3394,1 51118U 22005Q   24020.76733905 -.00001000  00000-0 -44793-4 0  9997,2 51118  53.2164 185.8380 0001378  83.4741 276.6408 15.08828176112393,6917.917,95.438,540.735,538.828,0.0
51118.0,STARLINK-3394,PAYLOAD,2024-01-20 20:00:21,15.08829754,0.000135,53.2164,185.5405,91.0821,269.0326,-3.4351e-05,-8.34e-06,0.0,0 STARLINK-3394,1 51118U 22005Q   24020.83357763 -.00000834  00000-0 -34351-4 0  9992,2 51118  53.2164 185.5405 0001350  91.0821 269.0326 15.08829754111298,6917.912,95.438,540.711,538.843,0.0
51118.0,STARLINK-3394,PAYLOAD,2024-01-21 19:51:06,15.08849887,0.0001397,53.2171,181.0764,87.5182,272.597,0.00013695,1.893e-05,0.0,0 STARLINK-3394,1 51118U 22005Q   24021.82716342  .00001893  00000-0  13695-3 0  9995,2 51118  53.2171 181.0764 0001397  87.5182 272.5970 15.08849887112559,6917.85,95.437,540.682,538.749,0.0
51118.0,STARLINK-3394,PAYLOAD,2024-01-22 10:09:35,15.08839142,0.0001205,53.2165,178.4005,108.4329,251.6794,0.0001301,1.783e-05,0.0,0 STARLINK-3394,1 51118U 22005Q   24022.42333071  .00001783  00000-0  13010-3 0  9995,2 51118  53.2165 178.4005 0001205 108.4329 251.6794 15.08839142112649,6917.883,95.438,540.582,538.914,0.0
51118.0,STARLINK-3394,PAYLOAD,2024-01-22 16:31:08,15.08844421,0.000145,53.2159,177.2159,81.5178,278.5978,0.00016296,2.307e-05,0.0,0 STARLINK-3394,1 51118U 22005Q   24022.68828779  .00002307  00000-0  16296-3 0  9999,2 51118  53.2159 177.2159 0001450  81.5178 278.5978 15.08844421111573,6917.867,95.437,540.735,538.729,0.0
51118.0,STARLINK-3394,PAYLOAD,2024-01-23 16:21:54,15.08852198,0.000154,53.2174,172.7562,114.3633,245.752,2.1049e-05,4.7e-07,0.0,0 STARLINK-3394,1 51118U 22005Q   24023.68188216  .00000047  00000-0  21049-4 0  9997,2 51118  53.2174 172.7562 0001540 114.3633 245.7520 15.08852198112838,6917.843,95.437,540.773,538.643,0.0
51118.0,STARLINK-3394,PAYLOAD,2024-01-24 14:37:19,15.08840782,0.000161,53.2182,168.593,100.7221,259.3952,-1.27e-05,-4.9e-06,0.0,0 STARLINK-3394,1 51118U 22005Q   24024.60924844 -.00000490  00000-0 -12700-4 0  9993,2 51118  53.2182 168.5930 0001610 100.7221 259.3952 15.08840782111867,6917.878,95.438,540.857,538.629,0.0
51118.0,STARLINK-3394,PAYLOAD,2024-01-24 16:12:42,15.08840599,0.0001543,53.2182,168.2962,93.1933,266.9235,-1.4696e-05,-5.22e-06,0.0,0 STARLINK-3394,1 51118U 22005Q   24024.67548872 -.00000522  00000-0 -14696-4 0  9995,2 51118  53.2182 168.2962 0001543  93.1933 266.9235 15.08840599112987,6917.879,95.438,540.811,538.676,0.0
51118.0,STARLINK-3394,PAYLOAD,2024-01-25 14:28:06,15.08839175,0.0001598,53.2183,164.1365,106.8092,253.3075,-7.5876e-06,-4.09e-06,0.0,0 STARLINK-3394,1 51118U 22005Q   24025.60284958 -.00000409  00000-0 -75876-5 0  9993,2 51118  53.2183 164.1365 0001598 106.8092 253.3075 15.08839175112012,6917.883,95.438,540.853,538.642,0.0
51118.0,STARLINK-3394,PAYLOAD,2024-01-25 16:03:29,15.08840944,0.0001458,53.2178,163.8372,98.1089,262.0069,1.5545e-06,-2.63e-06,0.0,0 STARLINK-3394,1 51118U 22005Q   24025.66908840 -.00000263  00000-0  15545-5 0  9996,2 51118  53.2178 163.8372 0001458  98.1089 262.0069 15.08840944112021,6917.878,95.437,540.751,538.734,0.0
51118.0,STARLINK-3394,PAYLOAD,2024-01-26 14:18:52,15.08840945,0.0001477,53.2179,159.6739,95.003,265.1131,0.00010912,1.449e-05,0.0,0 STARLINK-3394,1 51118U 22005Q   24026.59644636  .00001449  00000-0  10912-3 0  9996,2 51118  53.2179 159.6739 0001477  95.0030 265.1131 15.08840945112165,6917.878,95.437,540.764,538.721,0.0
51118.0,STARLINK-3394,PAYLOAD,2024-01-26 19:05:02,15.08845662,0.0001501,53.2182,158.7767,91.2581,268.8583,0.00014667,2.047e-05,0.0,0 STARLINK-3394,1 51118U 22005Q   24026.79516205  .00002047  00000-0  14667-3 0  9994,2 51118  53.2182 158.7767 0001501  91.2581 268.8583 15.08845662113306,6917.863,95.437,540.766,538.69,0.0
51118.0,STARLINK-3394,PAYLOAD,2024-01-27 12:34:17,15.08838426,0.0001704,53.2162,155.5054,84.0945,276.0242,3.132e-05,2.1e-06,0.0,0 STARLINK-3394,1 51118U 22005Q   24027.52381345  .00000210  00000-0  31320-4 0  9997,2 51118  53.2162 155.5054 0001704  84.0945 276.0242 15.08838426113412,6917.885,95.438,540.929,538.571,0.0
51118.0,STARLINK-3394,PAYLOAD,2024-01-27 14:09:40,15.0883867,0.0001418,53.217,155.2081,94.855,265.2604,2.7277e-05,1.46e-06,0.0,0 STARLINK-3394,1 51118U 22005Q   24027.59005251  .00000146  00000-0  27277-4 0  9997,2 51118  53.2170 155.2081 0001418  94.8550 265.2604 15.08838670112312,6917.884,95.438,540.73,538.768,0.0
51118.0,STARLINK-3394,PAYLOAD,2024-01-27 17:20:26,15.08841641,0.0001481,53.2177,154.613,89.3398,270.7764,5.9152e-05,6.54e-06,0.0,0 STARLINK-3394,1 51118U 22005Q   24027.72253034  .00000654  00000-0  59152-4 0  9997,2 51118  53.2177 154.6130 0001481  89.3398 270.7764 15.08841641112338,6917.875,95.437,540.765,538.716,0.0
